[{"OBJECT_NAME":"OBJECT Y","OBJECT_ID":"2023-085Y","EPOCH":"2026-03-09T22:38:54.992256","MEAN_MOTION":15.32500153,"ECCENTRICITY":0.00063298,"INCLINATION":97.4849,"RA_OF_ASC_NODE":180.8653,"ARG_OF_PERICENTER":67.4431,"MEAN_ANOMALY":292.748,"EPHEMERIS_TYPE":0,"CLASSIFICATION_TYPE":"U","NORAD_CAT_ID":57026,"ELEMENT_SET_NO":999,"REV_AT_EPOCH":15160,"BSTAR":0.00065512761,"MEAN_MOTION_DOT":0.00020524,"MEAN_MOTION_DDOT":0},{"OBJECT_NAME":"STARLINK-30714","OBJECT_ID":"2023-148E","EPOCH":"2026-03-09T06:26:10.169664","MEAN_MOTION":15.30192407,"ECCENTRICITY":0.00010686,"INCLINATION":53.1611,"RA_OF_ASC_NODE":26.4425,"ARG_OF_PERICENTER":87.7795,"MEAN_ANOMALY":272.3328,"EPHEMERIS_TYPE":0,"CLASSIFICATION_TYPE":"U","NORAD_CAT_ID":57939,"ELEMENT_SET_NO":999,"REV_AT_EPOCH":13835,"BSTAR":-1.9342131e-5,"MEAN_MOTION_DOT":-9.32e-6,"MEAN_MOTION_DDOT":0}]
